{"spkid": "50256351", "covariance": {"epoch": "2454130.5", "labels": ["e", "q", "tp", "node", "peri", "i"], "elements": [{"name": "e", "sigma": 2.95405650363389e-07, "units": null, "value": ".6520017671477412", "title": "eccentricity", "label": "e"}, {"units": "au", "title": "perihelion distance", "value": ".9260924251621641", "name": "q", "sigma": 8.15691204092564e-07, "label": "q"}, {"label": "tp", "sigma": 0.00038657502825658, "name": "tp", "units": "TDB", "value": "2454837.615247381380", "title": "time of perihelion passage"}, {"title": "longitude of the ascending node", "value": "12.17787529360276", "units": "deg", "name": "om", "sigma": 7.27449476693634e-05, "label": "node"}, {"name": "w", "sigma": 0.000225483019787749, "title": "argument of perihelion", "value": "322.6684455830733", "units": "deg", "label": "peri"}, {"label": "i", "sigma": 4.89253952467774e-05, "name": "i", "units": "deg", "title": "inclination", "value": "9.120426653673226"}], "data": [["8.726449826661683E-14", "-2.409532832855291E-13", "-1.06095648710954E-10", "-1.361116700325256E-11", "-6.3796297285687E-11", "1.169277495127978E-11"], ["-2.409532832855291E-13", "6.653521404339767E-13", "2.93707243382747E-10", "3.779123926497372E-11", "1.763755222723864E-10", "-3.235519329029287E-11"], ["-1.06095648710954E-10", "2.93707243382747E-10", "1.494402524715758E-7", "2.157210118310665E-8", "8.420866107615428E-8", "-1.667188621821132E-8"], ["-1.361116700325256E-11", "3.779123926497372E-11", "2.157210118310665E-8", "5.291827411418423E-9", "9.60702698726925E-9", "-1.633206597488296E-9"], ["-6.3796297285687E-11", "1.763755222723864E-10", "8.420866107615428E-8", "9.60702698726925E-9", "5.084259221260243E-8", "-1.016478086820748E-8"], ["1.169277495127978E-11", "-3.235519329029287E-11", "-1.667188621821132E-8", "-1.633206597488296E-9", "-1.016478086820748E-8", "2.393694300053384E-9"]]}, "elements": [{"label": "e", "name": "e", "sigma": "1.0698E-7", "units": null, "value": ".6572401566610904", "title": "eccentricity"}, {"sigma": "3.3495E-7", "name": "a", "value": "2.651554693166925", "title": "semi-major axis", "units": "au", "label": "a"}, {"label": "q", "name": "q", "sigma": "2.4576E-7", "title": "perihelion distance", "value": ".9088464712344457", "units": "au"}, {"label": "i", "units": "deg", "value": "9.503428664070031", "title": "inclination; angle with respect to x-y ecliptic plane", "name": "i", "sigma": "5.537E-5"}, {"label": "node", "units": "deg", "title": "longitude of the ascending node", "value": "9.997357020048963", "name": "om", "sigma": ".00010495"}, {"label": "peri", "sigma": ".0001797", "name": "w", "units": "deg", "title": "argument of perihelion", "value": "325.5182204391234"}, {"label": "M", "name": "ma", "sigma": "9.1171E-5", "title": "mean anomaly", "value": "6.392673381517589", "units": "deg"}, {"label": "tp", "value": "2461172.495403063286", "title": "time of perihelion passage", "units": "TDB", "name": "tp", "sigma": ".0003941"}, {"title": "sidereal orbital period", "value": "1577.063975513733", "units": "d", "name": "per", "sigma": ".00029882", "label": "period"}, {"label": "n", "sigma": "4.3253E-8", "name": "n", "title": "mean motion", "value": ".2282722867236436", "units": "deg/d"}, {"label": "Q", "title": "aphelion distance", "value": "4.394262915099404", "units": "au", "name": "ad", "sigma": "5.5509E-7"}], "epoch": "2461200.5"}